ALOS (DAICHI)           
1 28931U 06002A   26016.14846990  .00000816  00000+0  14561-3 0  9991
2 28931  98.1135 332.4045 0002166  89.2126 270.9328 14.69605287 65769
H-2A R/B                
1 28932U 06002B   26016.32949471  .00005917  00000+0  30679-3 0  9995
2 28932  98.2333 158.9280 0054409  60.1217 300.5404 15.15306053 86500
RESURS-DK 1             
1 29228U 06021A   26016.15940306  .00001609  00000+0  98706-4 0  9994
2 29228  69.9335  12.8699 0005608 228.1519 131.9168 15.12377406 79586
CZ-4B R/B               
1 29507U 06046C   26016.22224023  .00003095  00000+0  16108-3 0  9996
2 29507  97.5691  61.2680 0035292  89.4606 271.0671 15.16260422 52098
CZ-2C R/B               
1 31114U 07010B   26016.31069119  .00000060  00000+0  46022-4 0  9996
2 31114  98.3972 132.2221 0060105  86.6850 274.1202 14.20224904972282
COSMO-SKYMED 1          
1 31598U 07023A   26016.30347090  .00001991  00000+0  18256-3 0  9993
2 31598  97.8842 206.9373 0001161  75.0419 285.0930 14.96057047  7075
COSMOS 2428             
1 31792U 07029A   26016.21669783  .00000345  00000+0  21094-3 0  9997
2 31792  70.9399 313.4941 0005746 337.5327  22.5542 14.12911091956681
SL-16 R/B               
1 31793U 07029B   26016.19234845 -.00000276  00000+0 -11813-3 0  9995
2 31793  70.9759 282.7375 0002216 273.6309 239.2754 14.14823555957941
KORONAS-FOTON           
1 33504U 09003A   26016.09257748  .00006789  00000+0  15857-3 0  9992
2 33504  82.4323 330.4899 0011031 359.0397   1.0826 15.41918553937634
CZ-2C R/B               
1 37731U 11030B   26016.34077243  .00000836  00000+0  11212-3 0  9997
2 37731  97.8458 334.6930 0053182 159.1626   1.2244 14.81013872782343
H-2A R/B                
1 38341U 12025E   26016.25283426  .00002170  00000+0  20215-3 0  9998
2 38341  98.4643 339.1589 0046117 123.0029 237.5634 14.94685768740389
SHIJIAN-16 (SJ-16)      
1 39358U 13057A   26016.26807914  .00000410  00000+0  43111-4 0  9994
2 39358  74.9737 284.3165 0017774 239.9965 119.9460 14.92139872663680
