CCSDS_OMM_VERS = 2.0
CREATION_DATE  = 
ORIGINATOR     = 

OBJECT_NAME    = ALOS (DAICHI)
OBJECT_ID      = 2006-002A
CENTER_NAME    = EARTH
REF_FRAME      = TEME
TIME_SYSTEM    = UTC
MEAN_ELEMENT_THEORY = SGP/SGP4

EPOCH          = 2026-01-16T03:33:47.799360
MEAN_MOTION    = 14.69605287
ECCENTRICITY   = .00021662
INCLINATION    = 98.1135
RA_OF_ASC_NODE = 332.4045
ARG_OF_PERICENTER = 89.2126
MEAN_ANOMALY   = 270.9328

EPHEMERIS_TYPE = 0
CLASSIFICATION_TYPE = U
NORAD_CAT_ID   = 28931
ELEMENT_SET_NO = 999
REV_AT_EPOCH   = 6576
BSTAR          = .14560954E-3
MEAN_MOTION_DOT = .816E-5
MEAN_MOTION_DDOT = 0

CCSDS_OMM_VERS = 2.0
CREATION_DATE  = 
ORIGINATOR     = 

OBJECT_NAME    = H-2A R/B
OBJECT_ID      = 2006-002B
CENTER_NAME    = EARTH
REF_FRAME      = TEME
TIME_SYSTEM    = UTC
MEAN_ELEMENT_THEORY = SGP/SGP4

EPOCH          = 2026-01-16T07:54:28.342944
MEAN_MOTION    = 15.15306053
ECCENTRICITY   = .00544094
INCLINATION    = 98.2333
RA_OF_ASC_NODE = 158.9280
ARG_OF_PERICENTER = 60.1217
MEAN_ANOMALY   = 300.5404

EPHEMERIS_TYPE = 0
CLASSIFICATION_TYPE = U
NORAD_CAT_ID   = 28932
ELEMENT_SET_NO = 999
REV_AT_EPOCH   = 8650
BSTAR          = .30678869E-3
MEAN_MOTION_DOT = .5917E-4
MEAN_MOTION_DDOT = 0

CCSDS_OMM_VERS = 2.0
CREATION_DATE  = 
ORIGINATOR     = 

OBJECT_NAME    = RESURS-DK 1
OBJECT_ID      = 2006-021A
CENTER_NAME    = EARTH
REF_FRAME      = TEME
TIME_SYSTEM    = UTC
MEAN_ELEMENT_THEORY = SGP/SGP4

EPOCH          = 2026-01-16T03:49:32.424384
MEAN_MOTION    = 15.12377406
ECCENTRICITY   = .00056089
INCLINATION    = 69.9335
RA_OF_ASC_NODE = 12.8699
ARG_OF_PERICENTER = 228.1519
MEAN_ANOMALY   = 131.9168

EPHEMERIS_TYPE = 0
CLASSIFICATION_TYPE = U
NORAD_CAT_ID   = 29228
ELEMENT_SET_NO = 999
REV_AT_EPOCH   = 7958
BSTAR          = .98705877E-4
MEAN_MOTION_DOT = .1609E-4
MEAN_MOTION_DDOT = 0

CCSDS_OMM_VERS = 2.0
CREATION_DATE  = 
ORIGINATOR     = 

OBJECT_NAME    = CZ-4B R/B
OBJECT_ID      = 2006-046C
CENTER_NAME    = EARTH
REF_FRAME      = TEME
TIME_SYSTEM    = UTC
MEAN_ELEMENT_THEORY = SGP/SGP4

EPOCH          = 2026-01-16T05:20:01.555872
MEAN_MOTION    = 15.16260422
ECCENTRICITY   = .00352928
INCLINATION    = 97.5691
RA_OF_ASC_NODE = 61.2680
ARG_OF_PERICENTER = 89.4606
MEAN_ANOMALY   = 271.0671

EPHEMERIS_TYPE = 0
CLASSIFICATION_TYPE = U
NORAD_CAT_ID   = 29507
ELEMENT_SET_NO = 999
REV_AT_EPOCH   = 5209
BSTAR          = .16108033E-3
MEAN_MOTION_DOT = .3095E-4
MEAN_MOTION_DDOT = 0

CCSDS_OMM_VERS = 2.0
CREATION_DATE  = 
ORIGINATOR     = 

OBJECT_NAME    = CZ-2C R/B
OBJECT_ID      = 2007-010B
CENTER_NAME    = EARTH
REF_FRAME      = TEME
TIME_SYSTEM    = UTC
MEAN_ELEMENT_THEORY = SGP/SGP4

EPOCH          = 2026-01-16T07:27:23.718816
MEAN_MOTION    = 14.20224904
ECCENTRICITY   = .00601053
INCLINATION    = 98.3972
RA_OF_ASC_NODE = 132.2221
ARG_OF_PERICENTER = 86.6850
MEAN_ANOMALY   = 274.1202

EPHEMERIS_TYPE = 0
CLASSIFICATION_TYPE = U
NORAD_CAT_ID   = 31114
ELEMENT_SET_NO = 999
REV_AT_EPOCH   = 97228
BSTAR          = .46021903E-4
MEAN_MOTION_DOT = .6E-6
MEAN_MOTION_DDOT = 0

CCSDS_OMM_VERS = 2.0
CREATION_DATE  = 
ORIGINATOR     = 

OBJECT_NAME    = COSMO-SKYMED 1
OBJECT_ID      = 2007-023A
CENTER_NAME    = EARTH
REF_FRAME      = TEME
TIME_SYSTEM    = UTC
MEAN_ELEMENT_THEORY = SGP/SGP4

EPOCH          = 2026-01-16T07:16:59.885760
MEAN_MOTION    = 14.96057047
ECCENTRICITY   = .0001161
INCLINATION    = 97.8842
RA_OF_ASC_NODE = 206.9373
ARG_OF_PERICENTER = 75.0419
MEAN_ANOMALY   = 285.0930

EPHEMERIS_TYPE = 0
CLASSIFICATION_TYPE = U
NORAD_CAT_ID   = 31598
ELEMENT_SET_NO = 999
REV_AT_EPOCH   = 707
BSTAR          = .18255706E-3
MEAN_MOTION_DOT = .1991E-4
MEAN_MOTION_DDOT = 0

CCSDS_OMM_VERS = 2.0
CREATION_DATE  = 
ORIGINATOR     = 

OBJECT_NAME    = COSMOS 2428
OBJECT_ID      = 2007-029A
CENTER_NAME    = EARTH
REF_FRAME      = TEME
TIME_SYSTEM    = UTC
MEAN_ELEMENT_THEORY = SGP/SGP4

EPOCH          = 2026-01-16T05:12:02.692512
MEAN_MOTION    = 14.12911091
ECCENTRICITY   = .00057462
INCLINATION    = 70.9399
RA_OF_ASC_NODE = 313.4941
ARG_OF_PERICENTER = 337.5327
MEAN_ANOMALY   = 22.5542

EPHEMERIS_TYPE = 0
CLASSIFICATION_TYPE = U
NORAD_CAT_ID   = 31792
ELEMENT_SET_NO = 999
REV_AT_EPOCH   = 95668
BSTAR          = .21094488E-3
MEAN_MOTION_DOT = .345E-5
MEAN_MOTION_DDOT = 0

CCSDS_OMM_VERS = 2.0
CREATION_DATE  = 
ORIGINATOR     = 

OBJECT_NAME    = SL-16 R/B
OBJECT_ID      = 2007-029B
CENTER_NAME    = EARTH
REF_FRAME      = TEME
TIME_SYSTEM    = UTC
MEAN_ELEMENT_THEORY = SGP/SGP4

EPOCH          = 2026-01-16T04:36:58.906080
MEAN_MOTION    = 14.14823555
ECCENTRICITY   = .00022162
INCLINATION    = 70.9759
RA_OF_ASC_NODE = 282.7375
ARG_OF_PERICENTER = 273.6309
MEAN_ANOMALY   = 239.2754

EPHEMERIS_TYPE = 0
CLASSIFICATION_TYPE = U
NORAD_CAT_ID   = 31793
ELEMENT_SET_NO = 999
REV_AT_EPOCH   = 95794
BSTAR          = -.11812968E-3
MEAN_MOTION_DOT = -.276E-5
MEAN_MOTION_DDOT = 0

CCSDS_OMM_VERS = 2.0
CREATION_DATE  = 
ORIGINATOR     = 

OBJECT_NAME    = KORONAS-FOTON
OBJECT_ID      = 2009-003A
CENTER_NAME    = EARTH
REF_FRAME      = TEME
TIME_SYSTEM    = UTC
MEAN_ELEMENT_THEORY = SGP/SGP4

EPOCH          = 2026-01-16T02:13:18.694272
MEAN_MOTION    = 15.41918553
ECCENTRICITY   = .00110318
INCLINATION    = 82.4323
RA_OF_ASC_NODE = 330.4899
ARG_OF_PERICENTER = 359.0397
MEAN_ANOMALY   = 1.0826

EPHEMERIS_TYPE = 0
CLASSIFICATION_TYPE = U
NORAD_CAT_ID   = 33504
ELEMENT_SET_NO = 999
REV_AT_EPOCH   = 93763
BSTAR          = .15856518E-3
MEAN_MOTION_DOT = .6789E-4
MEAN_MOTION_DDOT = 0

CCSDS_OMM_VERS = 2.0
CREATION_DATE  = 
ORIGINATOR     = 

OBJECT_NAME    = CZ-2C R/B
OBJECT_ID      = 2011-030B
CENTER_NAME    = EARTH
REF_FRAME      = TEME
TIME_SYSTEM    = UTC
MEAN_ELEMENT_THEORY = SGP/SGP4

EPOCH          = 2026-01-16T08:10:42.737952
MEAN_MOTION    = 14.81013872
ECCENTRICITY   = .00531823
INCLINATION    = 97.8458
RA_OF_ASC_NODE = 334.6930
ARG_OF_PERICENTER = 159.1626
MEAN_ANOMALY   = 1.2244

EPHEMERIS_TYPE = 0
CLASSIFICATION_TYPE = U
NORAD_CAT_ID   = 37731
ELEMENT_SET_NO = 999
REV_AT_EPOCH   = 78234
BSTAR          = .11211551E-3
MEAN_MOTION_DOT = .836E-5
MEAN_MOTION_DDOT = 0

CCSDS_OMM_VERS = 2.0
CREATION_DATE  = 
ORIGINATOR     = 

OBJECT_NAME    = H-2A R/B
OBJECT_ID      = 2012-025E
CENTER_NAME    = EARTH
REF_FRAME      = TEME
TIME_SYSTEM    = UTC
MEAN_ELEMENT_THEORY = SGP/SGP4

EPOCH          = 2026-01-16T06:04:04.880064
MEAN_MOTION    = 14.94685768
ECCENTRICITY   = .00461178
INCLINATION    = 98.4643
RA_OF_ASC_NODE = 339.1589
ARG_OF_PERICENTER = 123.0029
MEAN_ANOMALY   = 237.5634

EPHEMERIS_TYPE = 0
CLASSIFICATION_TYPE = U
NORAD_CAT_ID   = 38341
ELEMENT_SET_NO = 999
REV_AT_EPOCH   = 74038
BSTAR          = .20214627E-3
MEAN_MOTION_DOT = .217E-4
MEAN_MOTION_DDOT = 0

CCSDS_OMM_VERS = 2.0
CREATION_DATE  = 
ORIGINATOR     = 

OBJECT_NAME    = SHIJIAN-16 (SJ-16)
OBJECT_ID      = 2013-057A
CENTER_NAME    = EARTH
REF_FRAME      = TEME
TIME_SYSTEM    = UTC
MEAN_ELEMENT_THEORY = SGP/SGP4

EPOCH          = 2026-01-16T06:26:02.037696
MEAN_MOTION    = 14.92139872
ECCENTRICITY   = .00177743
INCLINATION    = 74.9737
RA_OF_ASC_NODE = 284.3165
ARG_OF_PERICENTER = 239.9965
MEAN_ANOMALY   = 119.9460

EPHEMERIS_TYPE = 0
CLASSIFICATION_TYPE = U
NORAD_CAT_ID   = 39358
ELEMENT_SET_NO = 999
REV_AT_EPOCH   = 66368
BSTAR          = .43110654E-4
MEAN_MOTION_DOT = .41E-5
MEAN_MOTION_DDOT = 0

